ONEWEB-0176             
1 48210U 21031A   25165.60620633  .00000306  00000+0  79080-3 0  9992
2 48210  87.9034   2.8310 0001810  89.3007 270.8330 13.14502711200021
ONEWEB-0184             
1 48211U 21031B   25165.80760278 -.00000165  00000+0 -47936-3 0  9995
2 48211  87.9028   2.7613 0002537 105.2283 254.9127 13.14502724200022
ONEWEB-0179             
1 48212U 21031C   25165.77826538  .00000162  00000+0  40217-3 0  9994
2 48212  87.9037   2.7846 0001873  85.1684 274.9659 13.14502125200065
ONEWEB-0180             
1 48213U 21031D   25165.81075789 -.00000200  00000+0 -57318-3 0  9999
2 48213  87.9028   2.7653 0002074  89.8962 270.2406 13.14501417199953
ONEWEB-0218             
1 48214U 21031E   25165.52849157 -.00000432  00000+0 -12001-2 0  9992
2 48214  87.9029   2.8232 0002903 101.0730 259.0726 13.14501149200078
ONEWEB-0209             
1 48215U 21031F   25165.59351789 -.00000044  00000+0 -15209-3 0  9992
2 48215  87.9031   2.8525 0001948  84.2873 275.8479 13.14503220200089
ONEWEB-0198             
1 48216U 21031G   25165.80600149 -.00000196  00000+0 -56203-3 0  9991
2 48216  87.9030   2.8119 0002210  90.3276 269.8107 13.14501377200224
ONEWEB-0189             
1 48217U 21031H   25165.59034299 -.00000047  00000+0 -16088-3 0  9997
2 48217  87.9029   2.8286 0002254  89.6169 270.5219 13.14502525199932
